<?xml version="1.0" encoding="UTF-8"?>
<kml xmlns="http://www.opengis.net/kml/2.2">
    <Document>
        <name>FactorySites.kml</name>
        <open>0</open>
        <Style id="polyStyle">
            <PolyStyle>
                <color>6600ee00</color>
                <colorMode>random</colorMode>
                <fill>1</fill>
                <outline>0</outline>
            </PolyStyle>
        </Style>
        <Placemark>
            <name>Shangai</name>
            <styleUrl>#polyStyle</styleUrl>
            <Polygon>
                <altitudeMode>clampToGround</altitudeMode>
                <outerBoundaryIs>
                    <LinearRing>
                        <coordinates>
                            121.763851, 30.866874
                            121.766215, 30.866457
						    121.768401, 30.866495
							121.769991, 30.866552
							121.771935, 30.867538
							121.772377, 30.878779
							121.768004, 30.879632
                        </coordinates>
                    </LinearRing>
                </outerBoundaryIs>
            </Polygon>
        </Placemark>
		<Placemark>
            <name>Frankfurt</name>
            <styleUrl>#polyStyle</styleUrl>
            <Polygon>
                <altitudeMode>clampToGround</altitudeMode>
                <outerBoundaryIs>
                    <LinearRing>
                        <coordinates>
							8.628384, 50.087672
                            8.619543, 50.087775
                            8.620009, 50.085671
						    8.618948, 50.084980
							8.618980, 50.084248
							8.628867, 50.084691
                        </coordinates>
                    </LinearRing>
                </outerBoundaryIs>
            </Polygon>
        </Placemark>
    </Document>
</kml>
